start=new Date('2022-11-19T00:00:00.000Z').valueOf();
sats=[{"OBJECT_ID":"2021-027AL","REF_FRAME":"TEME","PERIAPSIS":"545.968","MEAN_ANOMALY":"296.7832","TLE_LINE2":"2 48126  53.0543 169.4159 0001788  63.3340 296.7832 15.06402446 90807","TIME_SYSTEM":"UTC","INCLINATION":"53.0543","ARG_OF_PERICENTER":"63.3340","BSTAR":"0.00009037800000","RCS_SIZE":"LARGE","MEAN_MOTION_DOT":"0.00001065","EPHEMERIS_TYPE":"0","PERIOD":"95.592","CLASSIFICATION_TYPE":"U","ELEMENT_SET_NO":"999","FILE":"3662753","SITE":"AFETR","APOAPSIS":"548.444","TLE_LINE1":"1 48126U 21027AL  22322.83397603  .00001065  00000-0  90378-4 0  9996","COUNTRY_CODE":"US","MEAN_ELEMENT_THEORY":"SGP4","LAUNCH_DATE":"2021-04-07","NORAD_CAT_ID":"48126","SEMIMAJOR_AXIS":"6925.341","ECCENTRICITY":"0.00017880","OBJECT_NAME":"STARLINK-2467","RA_OF_ASC_NODE":"169.4159","REV_AT_EPOCH":"9080","CENTER_NAME":"EARTH","DECAY_DATE":null,"MEAN_MOTION":"15.06402446","GP_ID":"218164750","OBJECT_TYPE":"PAYLOAD","EPOCH":"2022-11-18T20:00:55.528992","MEAN_MOTION_DDOT":"0.0000000000000"},{"LAUNCH_DATE":"2021-04-07","MEAN_ELEMENT_THEORY":"SGP4","COUNTRY_CODE":"US","TLE_LINE1":"1 48127U 21027AM  22322.89110719  .00001149  00000-0  96000-4 0  9995","CENTER_NAME":"EARTH","REV_AT_EPOCH":"9052","RA_OF_ASC_NODE":"189.1605","OBJECT_NAME":"STARLINK-2468","SEMIMAJOR_AXIS":"6925.355","NORAD_CAT_ID":"48127","ECCENTRICITY":"0.00017280","EPOCH":"2022-11-18T21:23:11.661216","GP_ID":"218165000","OBJECT_TYPE":"PAYLOAD","MEAN_MOTION":"15.06398006","DECAY_DATE":null,"MEAN_MOTION_DDOT":"0.0000000000000","MEAN_ANOMALY":"295.5583","PERIAPSIS":"546.023","REF_FRAME":"TEME","OBJECT_ID":"2021-027AM","ARG_OF_PERICENTER":"64.5585","INCLINATION":"53.0535","TIME_SYSTEM":"UTC","TLE_LINE2":"2 48127  53.0535 189.1605 0001728  64.5585 295.5583 15.06398006 90527","MEAN_MOTION_DOT":"0.00001149","EPHEMERIS_TYPE":"0","RCS_SIZE":"LARGE","BSTAR":"0.00009600000000","APOAPSIS":"548.416","SITE":"AFETR","FILE":"3662753","ELEMENT_SET_NO":"999","CLASSIFICATION_TYPE":"U","PERIOD":"95.592"},{"ARG_OF_PERICENTER":"78.4808","INCLINATION":"53.0539","TIME_SYSTEM":"UTC","TLE_LINE2":"2 48128  53.0539 119.6265 0001514  78.4808 281.6351 15.06400405 91489","MEAN_ANOMALY":"281.6351","PERIAPSIS":"546.164","REF_FRAME":"TEME","OBJECT_ID":"2021-027AN","APOAPSIS":"548.261","SITE":"AFETR","FILE":"3662753","CLASSIFICATION_TYPE":"U","ELEMENT_SET_NO":"999","PERIOD":"95.592","EPHEMERIS_TYPE":"0","MEAN_MOTION_DOT":"0.00002094","RCS_SIZE":"LARGE","BSTAR":"0.00015941000000","CENTER_NAME":"EARTH","RA_OF_ASC_NODE":"119.6265","REV_AT_EPOCH":"9148","NORAD_CAT_ID":"48128","SEMIMAJOR_AXIS":"6925.347","ECCENTRICITY":"0.00015140","OBJECT_NAME":"STARLINK-2469","LAUNCH_DATE":"2021-04-07","MEAN_ELEMENT_THEORY":"SGP4","COUNTRY_CODE":"US","TLE_LINE1":"1 48128U 21027AN  22322.80540849  .00002094  00000-0  15941-3 0  9992","MEAN_MOTION_DDOT":"0.0000000000000","EPOCH":"2022-11-18T19:19:47.293536","GP_ID":"218165752","OBJECT_TYPE":"PAYLOAD","MEAN_MOTION":"15.06400405","DECAY_DATE":null},{"MEAN_MOTION":"15.06406181","DECAY_DATE":null,"EPOCH":"2022-11-18T18:01:29.305632","GP_ID":"218166492","OBJECT_TYPE":"PAYLOAD","MEAN_MOTION_DDOT":"0.0000000000000","MEAN_ELEMENT_THEORY":"SGP4","COUNTRY_CODE":"US","TLE_LINE1":"1 48129U 21027AP  22322.75103363  .00001768  00000-0  13752-3 0  9998","LAUNCH_DATE":"2021-04-07","ECCENTRICITY":"0.00016940","SEMIMAJOR_AXIS":"6925.330","NORAD_CAT_ID":"48129","OBJECT_NAME":"STARLINK-2471","CENTER_NAME":"EARTH","RA_OF_ASC_NODE":"189.7857","REV_AT_EPOCH":"9050","RCS_SIZE":"LARGE","BSTAR":"0.00013752000000","EPHEMERIS_TYPE":"0","MEAN_MOTION_DOT":"0.00001768","FILE":"3662753","ELEMENT_SET_NO":"999","CLASSIFICATION_TYPE":"U","PERIOD":"95.592","APOAPSIS":"548.368","SITE":"AFETR","OBJECT_ID":"2021-027AP","MEAN_ANOMALY":"296.8330","PERIAPSIS":"546.021","REF_FRAME":"TEME","INCLINATION":"53.0527","TIME_SYSTEM":"UTC","TLE_LINE2":"2 48129  53.0527 189.7857 0001694  63.2832 296.8330 15.06406181 90504","ARG_OF_PERICENTER":"63.2832"},{"OBJECT_ID":"2021-027AQ","MEAN_ANOMALY":"286.2583","PERIAPSIS":"546.091","REF_FRAME":"TEME","INCLINATION":"53.0535","TIME_SYSTEM":"UTC","TLE_LINE2":"2 48130  53.0535 198.1100 0001614  73.8584 286.2583 15.06401508 90324","ARG_OF_PERICENTER":"73.8584","BSTAR":"0.00017045000000","RCS_SIZE":"LARGE","EPHEMERIS_TYPE":"0","MEAN_MOTION_DOT":"0.00002258","FILE":"3662515","ELEMENT_SET_NO":"999","CLASSIFICATION_TYPE":"U","PERIOD":"95.592","APOAPSIS":"548.327","SITE":"AFETR","MEAN_ELEMENT_THEORY":"SGP4","COUNTRY_CODE":"US","TLE_LINE1":"1 48130U 21027AQ  22322.01060243  .00002258  00000-0  17045-3 0  9992","LAUNCH_DATE":"2021-04-07","SEMIMAJOR_AXIS":"6925.344","NORAD_CAT_ID":"48130","ECCENTRICITY":"0.00016140","OBJECT_NAME":"STARLINK-2472","CENTER_NAME":"EARTH","RA_OF_ASC_NODE":"198.1100","REV_AT_EPOCH":"9032","MEAN_MOTION":"15.06401508","DECAY_DATE":null,"EPOCH":"2022-11-18T00:15:16.049952","OBJECT_TYPE":"PAYLOAD","GP_ID":"218134810","MEAN_MOTION_DDOT":"0.0000000000000"},{"TLE_LINE1":"1 48131U 21027AR  22322.56121718  .00000043  00000-0  21797-4 0  9998","COUNTRY_CODE":"US","MEAN_ELEMENT_THEORY":"SGP4","LAUNCH_DATE":"2021-04-07","NORAD_CAT_ID":"48131","SEMIMAJOR_AXIS":"6925.357","ECCENTRICITY":"0.00017430","OBJECT_NAME":"STARLINK-2473","REV_AT_EPOCH":"9075","RA_OF_ASC_NODE":"170.6225","CENTER_NAME":"EARTH","DECAY_DATE":null,"MEAN_MOTION":"15.06397332","OBJECT_TYPE":"PAYLOAD","GP_ID":"218135060","EPOCH":"2022-11-18T13:28:09.164352","MEAN_MOTION_DDOT":"0.0000000000000","OBJECT_ID":"2021-027AR","REF_FRAME":"TEME","PERIAPSIS":"546.015","MEAN_ANOMALY":"297.6858","TLE_LINE2":"2 48131  53.0546 170.6225 0001743  62.4307 297.6858 15.06397332 90757","TIME_SYSTEM":"UTC","INCLINATION":"53.0546","ARG_OF_PERICENTER":"62.4307","BSTAR":"0.00002179700000","RCS_SIZE":"LARGE","MEAN_MOTION_DOT":"0.00000043","EPHEMERIS_TYPE":"0","PERIOD":"95.592","ELEMENT_SET_NO":"999","CLASSIFICATION_TYPE":"U","FILE":"3662515","SITE":"AFETR","APOAPSIS":"548.429"},{"MEAN_MOTION_DOT":"0.00001398","EPHEMERIS_TYPE":"0","BSTAR":"0.00011276000000","RCS_SIZE":"LARGE","SITE":"AFETR","APOAPSIS":"548.346","ELEMENT_SET_NO":"999","CLASSIFICATION_TYPE":"U","PERIOD":"95.593","FILE":"3662515","REF_FRAME":"TEME","MEAN_ANOMALY":"294.4160","PERIAPSIS":"546.132","OBJECT_ID":"2021-027AS","ARG_OF_PERICENTER":"65.6996","TLE_LINE2":"2 48132  53.0533 193.1052 0001599  65.6996 294.4160 15.06391675 90384","INCLINATION":"53.0533","TIME_SYSTEM":"UTC","EPOCH":"2022-11-18T00:14:38.637888","GP_ID":"218135812","OBJECT_TYPE":"PAYLOAD","DECAY_DATE":null,"MEAN_MOTION":"15.06391675","MEAN_MOTION_DDOT":"0.0000000000000","LAUNCH_DATE":"2021-04-07","COUNTRY_CODE":"US","TLE_LINE1":"1 48132U 21027AS  22322.01016942  .00001398  00000-0  11276-3 0  9995","MEAN_ELEMENT_THEORY":"SGP4","RA_OF_ASC_NODE":"193.1052","REV_AT_EPOCH":"9038","CENTER_NAME":"EARTH","ECCENTRICITY":"0.00015990","SEMIMAJOR_AXIS":"6925.374","NORAD_CAT_ID":"48132","OBJECT_NAME":"STARLINK-2474"},{"INCLINATION":"53.0538","TIME_SYSTEM":"UTC","TLE_LINE2":"2 48133  53.0538 193.7159 0001593  76.7131 283.4036 15.06397787 90371","ARG_OF_PERICENTER":"76.7131","OBJECT_ID":"2021-027AT","MEAN_ANOMALY":"283.4036","PERIAPSIS":"546.117","REF_FRAME":"TEME","FILE":"3662515","CLASSIFICATION_TYPE":"U","ELEMENT_SET_NO":"999","PERIOD":"95.592","APOAPSIS":"548.324","SITE":"AFETR","BSTAR":"0.00002894800000","RCS_SIZE":"LARGE","MEAN_MOTION_DOT":"0.00000150","EPHEMERIS_TYPE":"0","SEMIMAJOR_AXIS":"6925.355","NORAD_CAT_ID":"48133","ECCENTRICITY":"0.00015930","OBJECT_NAME":"STARLINK-2475","CENTER_NAME":"EARTH","REV_AT_EPOCH":"9037","RA_OF_ASC_NODE":"193.7159","MEAN_ELEMENT_THEORY":"SGP4","COUNTRY_CODE":"US","TLE_LINE1":"1 48133U 21027AT  22321.87378390  .00000150  00000-0  28948-4 0  9997","LAUNCH_DATE":"2021-04-07","MEAN_MOTION_DDOT":"0.0000000000000","MEAN_MOTION":"15.06397787","DECAY_DATE":null,"EPOCH":"2022-11-17T20:58:14.928960","GP_ID":"218135562","OBJECT_TYPE":"PAYLOAD"},{"BSTAR":"-0.00008948200000","RCS_SIZE":"LARGE","MEAN_MOTION_DOT":"-0.00001614","EPHEMERIS_TYPE":"0","CLASSIFICATION_TYPE":"U","ELEMENT_SET_NO":"999","PERIOD":"95.592","FILE":"3662515","SITE":"AFETR","APOAPSIS":"548.317","OBJECT_ID":"2021-027AU","REF_FRAME":"TEME","MEAN_ANOMALY":"289.7358","PERIAPSIS":"546.104","TLE_LINE2":"2 48134  53.0526 192.8978 0001598  70.3803 289.7358 15.06400940 90393","INCLINATION":"53.0526","TIME_SYSTEM":"UTC","ARG_OF_PERICENTER":"70.3803","DECAY_DATE":null,"MEAN_MOTION":"15.06400940","EPOCH":"2022-11-18T01:23:38.155200","OBJECT_TYPE":"PAYLOAD","GP_ID":"218134310","MEAN_MOTION_DDOT":"0.0000000000000","COUNTRY_CODE":"US","TLE_LINE1":"1 48134U 21027AU  22322.05808050 -.00001614  00000-0 -89482-4 0  9998","MEAN_ELEMENT_THEORY":"SGP4","LAUNCH_DATE":"2021-04-07","SEMIMAJOR_AXIS":"6925.346","ECCENTRICITY":"0.00015980","NORAD_CAT_ID":"48134","OBJECT_NAME":"STARLINK-2476","RA_OF_ASC_NODE":"192.8978","REV_AT_EPOCH":"9039","CENTER_NAME":"EARTH"},{"INCLINATION":"53.0551","TIME_SYSTEM":"UTC","TLE_LINE2":"2 48135  53.0551 196.5601 0001695  74.1454 285.9721 15.06400824 90379","ARG_OF_PERICENTER":"74.1454","OBJECT_ID":"2021-027AV","MEAN_ANOMALY":"285.9721","PERIAPSIS":"546.037","REF_FRAME":"TEME","FILE":"3662515","CLASSIFICATION_TYPE":"U","ELEMENT_SET_NO":"999","PERIOD":"95.592","APOAPSIS":"548.385","SITE":"AFETR","RCS_SIZE":"LARGE","BSTAR":"0.00002530000000","EPHEMERIS_TYPE":"0","MEAN_MOTION_DOT":"0.00000095","NORAD_CAT_ID":"48135","SEMIMAJOR_AXIS":"6925.346","ECCENTRICITY":"0.00016950","OBJECT_NAME":"STARLINK-2478","CENTER_NAME":"EARTH","REV_AT_EPOCH":"9037","RA_OF_ASC_NODE":"196.5601","MEAN_ELEMENT_THEORY":"SGP4","COUNTRY_CODE":"US","TLE_LINE1":"1 48135U 21027AV  22322.39121834  .00000095  00000-0  25300-4 0  9993","LAUNCH_DATE":"2021-04-07","MEAN_MOTION_DDOT":"0.0000000000000","MEAN_MOTION":"15.06400824","DECAY_DATE":null,"EPOCH":"2022-11-18T09:23:21.264576","OBJECT_TYPE":"PAYLOAD","GP_ID":"218134560"}];
